[{"OBJECT_NAME":"STARLINK-33691","OBJECT_ID":"2025-070C","EPOCH":"2026-03-09T13:54:47.337120","MEAN_MOTION":15.27606595,"ECCENTRICITY":0.0002174,"INCLINATION":43.0015,"RA_OF_ASC_NODE":260.0728,"ARG_OF_PERICENTER":299.0633,"MEAN_ANOMALY":61,"EPHEMERIS_TYPE":0,"CLASSIFICATION_TYPE":"U","NORAD_CAT_ID":63462,"ELEMENT_SET_NO":999,"REV_AT_EPOCH":5291,"BSTAR":0.0012258,"MEAN_MOTION_DOT":0.00033652,"MEAN_MOTION_DDOT":0},{"OBJECT_NAME":"OBJECT H","OBJECT_ID":"2025-155H","EPOCH":"2026-03-09T22:09:58.611456","MEAN_MOTION":15.27590961,"ECCENTRICITY":0.00081993,"INCLINATION":97.4482,"RA_OF_ASC_NODE":37.3122,"ARG_OF_PERICENTER":152.0629,"MEAN_ANOMALY":208.1051,"EPHEMERIS_TYPE":0,"CLASSIFICATION_TYPE":"U","NORAD_CAT_ID":64883,"ELEMENT_SET_NO":999,"REV_AT_EPOCH":6559,"BSTAR":0.00050403256,"MEAN_MOTION_DOT":0.00013547,"MEAN_MOTION_DDOT":0}]
